[{"OBJECT_NAME":"STARLINK-37016","OBJECT_ID":"2026-055AC","EPOCH":"2026-04-16T02:43:44.026464","MEAN_MOTION":15.81019767,"ECCENTRICITY":0.00016892,"INCLINATION":53.1572,"RA_OF_ASC_NODE":149.5317,"ARG_OF_PERICENTER":95.6106,"MEAN_ANOMALY":264.511,"EPHEMERIS_TYPE":0,"CLASSIFICATION_TYPE":"U","NORAD_CAT_ID":68288,"ELEMENT_SET_NO":999,"REV_AT_EPOCH":560,"BSTAR":0.0012280164,"MEAN_MOTION_DOT":0.00250524,"MEAN_MOTION_DDOT":0},{"OBJECT_NAME":"STARLINK-37010","OBJECT_ID":"2026-055AD","EPOCH":"2026-04-16T07:13:34.955328","MEAN_MOTION":15.80972387,"ECCENTRICITY":8.635e-5,"INCLINATION":53.1572,"RA_OF_ASC_NODE":148.5634,"ARG_OF_PERICENTER":71.1276,"MEAN_ANOMALY":288.984,"EPHEMERIS_TYPE":0,"CLASSIFICATION_TYPE":"U","NORAD_CAT_ID":68289,"ELEMENT_SET_NO":999,"REV_AT_EPOCH":563,"BSTAR":0.0014530012,"MEAN_MOTION_DOT":0.00297543,"MEAN_MOTION_DDOT":0},{"OBJECT_NAME":"STARLINK-37151","OBJECT_ID":"2026-055AE","EPOCH":"2026-04-16T05:41:29.486112","MEAN_MOTION":15.81013015,"ECCENTRICITY":0.00017589,"INCLINATION":53.1574,"RA_OF_ASC_NODE":148.8743,"ARG_OF_PERICENTER":56.163,"MEAN_ANOMALY":303.956,"EPHEMERIS_TYPE":0,"CLASSIFICATION_TYPE":"U","NORAD_CAT_ID":68290,"ELEMENT_SET_NO":999,"REV_AT_EPOCH":562,"BSTAR":0.00096445297,"MEAN_MOTION_DOT":0.00195279,"MEAN_MOTION_DDOT":0},{"OBJECT_NAME":"STRIX-6","OBJECT_ID":"2026-056A","EPOCH":"2026-04-15T05:41:19.164768","MEAN_MOTION":14.99764595,"ECCENTRICITY":0.001637,"INCLINATION":50.2828,"RA_OF_ASC_NODE":287.2716,"ARG_OF_PERICENTER":2.5777,"MEAN_ANOMALY":357.5254,"EPHEMERIS_TYPE":0,"CLASSIFICATION_TYPE":"U","NORAD_CAT_ID":68291,"ELEMENT_SET_NO":999,"REV_AT_EPOCH":382,"BSTAR":0.0001387,"MEAN_MOTION_DOT":1.471e-5,"MEAN_MOTION_DDOT":0},{"OBJECT_NAME":"STARLINK-37107","OBJECT_ID":"2026-057A","EPOCH":"2026-04-16T05:44:46.189536","MEAN_MOTION":15.75247026,"ECCENTRICITY":0.00026737,"INCLINATION":97.2844,"RA_OF_ASC_NODE":230.5171,"ARG_OF_PERICENTER":70.216,"MEAN_ANOMALY":289.9394,"EPHEMERIS_TYPE":0,"CLASSIFICATION_TYPE":"U","NORAD_CAT_ID":68294,"ELEMENT_SET_NO":999,"REV_AT_EPOCH":419,"BSTAR":0.0010684856,"MEAN_MOTION_DOT":0.0016273,"MEAN_MOTION_DDOT":0},{"OBJECT_NAME":"STARLINK-37147","OBJECT_ID":"2026-057B","EPOCH":"2026-04-16T07:21:50.216544","MEAN_MOTION":15.75213777,"ECCENTRICITY":6.313e-5,"INCLINATION":97.286,"RA_OF_ASC_NODE":230.5776,"ARG_OF_PERICENTER":19.1499,"MEAN_ANOMALY":340.9789,"EPHEMERIS_TYPE":0,"CLASSIFICATION_TYPE":"U","NORAD_CAT_ID":68295,"ELEMENT_SET_NO":999,"REV_AT_EPOCH":420,"BSTAR":0.00106607,"MEAN_MOTION_DOT":0.00162101,"MEAN_MOTION_DDOT":0},{"OBJECT_NAME":"STARLINK-37142","OBJECT_ID":"2026-057C","EPOCH":"2026-04-16T06:00:02.000160","MEAN_MOTION":15.75204863,"ECCENTRICITY":0.00014966,"INCLINATION":97.2856,"RA_OF_ASC_NODE":230.5487,"ARG_OF_PERICENTER":83.1631,"MEAN_ANOMALY":19.0519,"EPHEMERIS_TYPE":0,"CLASSIFICATION_TYPE":"U","NORAD_CAT_ID":68296,"ELEMENT_SET_NO":999,"REV_AT_EPOCH":508,"BSTAR":-0.00039315151,"MEAN_MOTION_DOT":-0.0005841,"MEAN_MOTION_DDOT":0},{"OBJECT_NAME":"STARLINK-37115","OBJECT_ID":"2026-057D","EPOCH":"2026-04-16T06:50:50.543808","MEAN_MOTION":15.80938726,"ECCENTRICITY":6.437e-5,"INCLINATION":97.2861,"RA_OF_ASC_NODE":230.6062,"ARG_OF_PERICENTER":117.4314,"MEAN_ANOMALY":242.702,"EPHEMERIS_TYPE":0,"CLASSIFICATION_TYPE":"U","NORAD_CAT_ID":68297,"ELEMENT_SET_NO":999,"REV_AT_EPOCH":420,"BSTAR":0.0017362113,"MEAN_MOTION_DOT":0.00348001,"MEAN_MOTION_DDOT":0},{"OBJECT_NAME":"STARLINK-36355","OBJECT_ID":"2026-057E","EPOCH":"2026-04-16T06:51:55.378368","MEAN_MOTION":15.80917666,"ECCENTRICITY":0.0001593,"INCLINATION":97.2845,"RA_OF_ASC_NODE":230.6063,"ARG_OF_PERICENTER":115.6275,"MEAN_ANOMALY":244.5158,"EPHEMERIS_TYPE":0,"CLASSIFICATION_TYPE":"U","NORAD_CAT_ID":68298,"ELEMENT_SET_NO":999,"REV_AT_EPOCH":420,"BSTAR":0.0013699457,"MEAN_MOTION_DOT":0.0027187,"MEAN_MOTION_DDOT":0},{"OBJECT_NAME":"STARLINK-37118","OBJECT_ID":"2026-057F","EPOCH":"2026-04-16T06:47:41.049600","MEAN_MOTION":15.80711655,"ECCENTRICITY":0.00018352,"INCLINATION":97.2849,"RA_OF_ASC_NODE":230.6095,"ARG_OF_PERICENTER":207.205,"MEAN_ANOMALY":152.9122,"EPHEMERIS_TYPE":0,"CLASSIFICATION_TYPE":"U","NORAD_CAT_ID":68299,"ELEMENT_SET_NO":999,"REV_AT_EPOCH":420,"BSTAR":0.0014872542,"MEAN_MOTION_DOT":0.00293126,"MEAN_MOTION_DDOT":0},{"OBJECT_NAME":"STARLINK-36875","OBJECT_ID":"2026-057G","EPOCH":"2026-04-16T06:48:40.719168","MEAN_MOTION":15.80893536,"ECCENTRICITY":0.00013046,"INCLINATION":97.2856,"RA_OF_ASC_NODE":230.609,"ARG_OF_PERICENTER":82.4024,"MEAN_ANOMALY":277.7392,"EPHEMERIS_TYPE":0,"CLASSIFICATION_TYPE":"U","NORAD_CAT_ID":68300,"ELEMENT_SET_NO":999,"REV_AT_EPOCH":420,"BSTAR":0.00098255082,"MEAN_MOTION_DOT":0.00192966,"MEAN_MOTION_DDOT":0},{"OBJECT_NAME":"STARLINK-37099","OBJECT_ID":"2026-057H","EPOCH":"2026-04-16T06:46:30.965376","MEAN_MOTION":15.80911585,"ECCENTRICITY":0.00026532,"INCLINATION":97.285,"RA_OF_ASC_NODE":230.609,"ARG_OF_PERICENTER":85.8774,"MEAN_ANOMALY":274.2798,"EPHEMERIS_TYPE":0,"CLASSIFICATION_TYPE":"U","NORAD_CAT_ID":68301,"ELEMENT_SET_NO":999,"REV_AT_EPOCH":420,"BSTAR":0.0010938709,"MEAN_MOTION_DOT":0.00215602,"MEAN_MOTION_DDOT":0},{"OBJECT_NAME":"STARLINK-37007","OBJECT_ID":"2026-057J","EPOCH":"2026-04-16T06:44:20.966208","MEAN_MOTION":15.80954612,"ECCENTRICITY":7.577e-5,"INCLINATION":97.2868,"RA_OF_ASC_NODE":230.6115,"ARG_OF_PERICENTER":116.6587,"MEAN_ANOMALY":243.4759,"EPHEMERIS_TYPE":0,"CLASSIFICATION_TYPE":"U","NORAD_CAT_ID":68302,"ELEMENT_SET_NO":999,"REV_AT_EPOCH":420,"BSTAR":0.0017836821,"MEAN_MOTION_DOT":0.00358201,"MEAN_MOTION_DDOT":0},{"OBJECT_NAME":"STARLINK-36300","OBJECT_ID":"2026-057K","EPOCH":"2026-04-16T06:45:26.113536","MEAN_MOTION":15.81049274,"ECCENTRICITY":0.00014306,"INCLINATION":97.2854,"RA_OF_ASC_NODE":230.6114,"ARG_OF_PERICENTER":356.6484,"MEAN_ANOMALY":3.4775,"EPHEMERIS_TYPE":0,"CLASSIFICATION_TYPE":"U","NORAD_CAT_ID":68303,"ELEMENT_SET_NO":999,"REV_AT_EPOCH":420,"BSTAR":0.0017935081,"MEAN_MOTION_DOT":0.00361874,"MEAN_MOTION_DDOT":0},{"OBJECT_NAME":"STARLINK-36849","OBJECT_ID":"2026-057L","EPOCH":"2026-04-16T06:00:02.000160","MEAN_MOTION":15.75160069,"ECCENTRICITY":0.00011722,"INCLINATION":97.2855,"RA_OF_ASC_NODE":230.5758,"ARG_OF_PERICENTER":85.8185,"MEAN_ANOMALY":84.4142,"EPHEMERIS_TYPE":0,"CLASSIFICATION_TYPE":"U","NORAD_CAT_ID":68304,"ELEMENT_SET_NO":999,"REV_AT_EPOCH":525,"BSTAR":-1.2999746e-5,"MEAN_MOTION_DOT":-2.066e-5,"MEAN_MOTION_DDOT":0}]
