STARLINK-37016          
1 68288U 26055AC  26106.11370401  .00250524  00000+0  12280-2 0  9994
2 68288  53.1572 149.5317 0001689  95.6106 264.5110 15.81019767  5603
STARLINK-37010          
1 68289U 26055AD  26106.30109902  .00297543  00000+0  14530-2 0  9994
2 68289  53.1572 148.5634 0000863  71.1276 288.9840 15.80972387  5633
STARLINK-37151          
1 68290U 26055AE  26106.23714683  .00195279  00000+0  96445-3 0  9995
2 68290  53.1574 148.8743 0001758  56.1630 303.9560 15.81013015  5623
STRIX-6                 
1 68291U 26056A   26105.23702737  .00001471  00000+0  13870-3 0  9994
2 68291  50.2828 287.2716 0016370   2.5777 357.5254 14.99764595  3824
STARLINK-37107          
1 68294U 26057A   26106.23942349  .00162730  00000+0  10685-2 0  9990
2 68294  97.2844 230.5171 0002673  70.2160 289.9394 15.75247026  4195
STARLINK-37147          
1 68295U 26057B   26106.30683121  .00162101  00000+0  10661-2 0  9995
2 68295  97.2860 230.5776 0000631  19.1499 340.9789 15.75213777  4208
STARLINK-37142          
1 68296U 26057C   26106.25002315 -.00058410  00000+0 -39315-3 0  9997
2 68296  97.2856 230.5487 0001496  83.1631  19.0519 15.75204863  5080
STARLINK-37115          
1 68297U 26057D   26106.28530722  .00348001  00000+0  17362-2 0  9992
2 68297  97.2861 230.6062 0000643 117.4314 242.7020 15.80938726  4202
STARLINK-36355          
1 68298U 26057E   26106.28605762  .00271870  00000+0  13699-2 0  9998
2 68298  97.2845 230.6063 0001593 115.6275 244.5158 15.80917666  4209
STARLINK-37118          
1 68299U 26057F   26106.28311400  .00293126  00000+0  14873-2 0  9995
2 68299  97.2849 230.6095 0001835 207.2050 152.9122 15.80711655  4200
STARLINK-36875          
1 68300U 26057G   26106.28380462  .00192966  00000+0  98255-3 0  9999
2 68300  97.2856 230.6090 0001304  82.4024 277.7392 15.80893536  4205
STARLINK-37099          
1 68301U 26057H   26106.28230284  .00215602  00000+0  10939-2 0  9991
2 68301  97.2850 230.6090 0002653  85.8774 274.2798 15.80911585  4204
STARLINK-37007          
1 68302U 26057J   26106.28079822  .00358201  00000+0  17837-2 0  9998
2 68302  97.2868 230.6115 0000757 116.6587 243.4759 15.80954612  4203
STARLINK-36300          
1 68303U 26057K   26106.28155224  .00361874  00000+0  17935-2 0  9999
2 68303  97.2854 230.6114 0001430 356.6484   3.4775 15.81049274  4201
STARLINK-36849          
1 68304U 26057L   26106.25002315 -.00002066  00000+0 -13000-4 0  9997
2 68304  97.2855 230.5758 0001172  85.8185  84.4142 15.75160069  5250
